IRIDIUM 144             
1 43249U 18030A   24307.38425189  .00000134  00000+0  40958-4 0  9997
2 43249  86.4026 177.7712 0002271  81.4768 278.6685 14.34214524345316
IRIDIUM 149             
1 43250U 18030B   24307.59989899  .00001153  00000+0  40467-3 0  9991
2 43250  86.4021 177.6551 0002018  76.1556 283.9864 14.34216202345366
IRIDIUM 157             
1 43251U 18030C   24307.54915639  .00000973  00000+0  34020-3 0  9995
2 43251  86.4024 177.7159 0001791  81.9394 278.2005 14.34219720345335
IRIDIUM 140             
1 43252U 18030D   24307.56818120  .00001059  00000+0  37093-3 0  9994
2 43252  86.4019 177.7222 0002173  85.0024 275.1419 14.34223728345395
IRIDIUM 145             
1 43253U 18030E   24307.55549017  .00000523  00000+0  17965-3 0  9991
2 43253  86.4026 177.6995 0002434  73.7707 286.3756 14.34215209345328
IRIDIUM 146             
1 43254U 18030F   24307.60624211  .00000949  00000+0  33174-3 0  9990
2 43254  86.4027 177.6933 0002020  80.2404 279.9020 14.34215050345348
IRIDIUM 148             
1 43255U 18030G   24307.92337251  .00001038  00000+0  36350-3 0  9990
2 43255  86.4025 177.5958 0001945  77.0661 283.0752 14.34215175345433
IRIDIUM 142             
1 43256U 18030H   24307.54281487  .00001054  00000+0  36927-3 0  9996
2 43256  86.4018 177.6652 0002089  71.7089 288.4334 14.34220786345331
